[{"OBJECT_NAME":"STARLINK-35995","OBJECT_ID":"2025-278AC","EPOCH":"2026-03-17T16:34:12.898848","MEAN_MOTION":15.27593067,"ECCENTRICITY":9.968e-5,"INCLINATION":43.0032,"RA_OF_ASC_NODE":69.0968,"ARG_OF_PERICENTER":263.113,"MEAN_ANOMALY":96.9608,"EPHEMERIS_TYPE":0,"CLASSIFICATION_TYPE":"U","NORAD_CAT_ID":66817,"ELEMENT_SET_NO":999,"REV_AT_EPOCH":1643,"BSTAR":0.00054167165,"MEAN_MOTION_DOT":0.00014679,"MEAN_MOTION_DDOT":0},{"OBJECT_NAME":"STARLINK-35994","OBJECT_ID":"2025-278AD","EPOCH":"2026-03-17T22:54:32.398560","MEAN_MOTION":15.27592636,"ECCENTRICITY":6.422e-5,"INCLINATION":42.9992,"RA_OF_ASC_NODE":67.6409,"ARG_OF_PERICENTER":259.6432,"MEAN_ANOMALY":100.4347,"EPHEMERIS_TYPE":0,"CLASSIFICATION_TYPE":"U","NORAD_CAT_ID":66818,"ELEMENT_SET_NO":999,"REV_AT_EPOCH":1647,"BSTAR":0.00077562807,"MEAN_MOTION_DOT":0.00021151,"MEAN_MOTION_DDOT":0},{"OBJECT_NAME":"STARLINK-35989","OBJECT_ID":"2025-278AE","EPOCH":"2026-03-17T16:50:52.018080","MEAN_MOTION":15.27591487,"ECCENTRICITY":9.321e-5,"INCLINATION":43.0028,"RA_OF_ASC_NODE":69.179,"ARG_OF_PERICENTER":244.1968,"MEAN_ANOMALY":115.8787,"EPHEMERIS_TYPE":0,"CLASSIFICATION_TYPE":"U","NORAD_CAT_ID":66819,"ELEMENT_SET_NO":999,"REV_AT_EPOCH":1643,"BSTAR":0.00054666859,"MEAN_MOTION_DOT":0.00014816,"MEAN_MOTION_DDOT":0},{"OBJECT_NAME":"STARLINK-35966","OBJECT_ID":"2025-280A","EPOCH":"2026-03-17T22:01:18.143904","MEAN_MOTION":14.9833763,"ECCENTRICITY":0.0002563,"INCLINATION":70.0014,"RA_OF_ASC_NODE":313.898,"ARG_OF_PERICENTER":267.9084,"MEAN_ANOMALY":92.1781,"EPHEMERIS_TYPE":0,"CLASSIFICATION_TYPE":"U","NORAD_CAT_ID":66821,"ELEMENT_SET_NO":999,"REV_AT_EPOCH":1730,"BSTAR":0.00037467864,"MEAN_MOTION_DOT":4.381e-5,"MEAN_MOTION_DDOT":0},{"OBJECT_NAME":"STARLINK-35958","OBJECT_ID":"2025-280B","EPOCH":"2026-03-17T22:49:21.059616","MEAN_MOTION":14.98340936,"ECCENTRICITY":0.00027287,"INCLINATION":70.0012,"RA_OF_ASC_NODE":313.6116,"ARG_OF_PERICENTER":279.409,"MEAN_ANOMALY":80.6761,"EPHEMERIS_TYPE":0,"CLASSIFICATION_TYPE":"U","NORAD_CAT_ID":66822,"ELEMENT_SET_NO":999,"REV_AT_EPOCH":1731,"BSTAR":0.00048023555,"MEAN_MOTION_DOT":5.643e-5,"MEAN_MOTION_DDOT":0},{"OBJECT_NAME":"STARLINK-35957","OBJECT_ID":"2025-280C","EPOCH":"2026-03-17T22:25:18.312672","MEAN_MOTION":14.98339152,"ECCENTRICITY":0.00024735,"INCLINATION":70.0027,"RA_OF_ASC_NODE":313.5543,"ARG_OF_PERICENTER":275.2808,"MEAN_ANOMALY":84.8069,"EPHEMERIS_TYPE":0,"CLASSIFICATION_TYPE":"U","NORAD_CAT_ID":66823,"ELEMENT_SET_NO":999,"REV_AT_EPOCH":1731,"BSTAR":0.00038670655,"MEAN_MOTION_DOT":4.525e-5,"MEAN_MOTION_DDOT":0},{"OBJECT_NAME":"STARLINK-35896","OBJECT_ID":"2025-280D","EPOCH":"2026-03-17T21:37:16.562496","MEAN_MOTION":14.9834665,"ECCENTRICITY":0.00025313,"INCLINATION":70.0014,"RA_OF_ASC_NODE":313.8397,"ARG_OF_PERICENTER":275.3993,"MEAN_ANOMALY":84.6877,"EPHEMERIS_TYPE":0,"CLASSIFICATION_TYPE":"U","NORAD_CAT_ID":66824,"ELEMENT_SET_NO":999,"REV_AT_EPOCH":1730,"BSTAR":0.000599694,"MEAN_MOTION_DOT":7.073e-5,"MEAN_MOTION_DDOT":0},{"OBJECT_NAME":"STARLINK-35476","OBJECT_ID":"2025-280E","EPOCH":"2026-03-17T21:49:16.514688","MEAN_MOTION":14.98335709,"ECCENTRICITY":0.00026114,"INCLINATION":70.001,"RA_OF_ASC_NODE":313.8704,"ARG_OF_PERICENTER":270.1243,"MEAN_ANOMALY":89.9617,"EPHEMERIS_TYPE":0,"CLASSIFICATION_TYPE":"U","NORAD_CAT_ID":66825,"ELEMENT_SET_NO":999,"REV_AT_EPOCH":1730,"BSTAR":0.00023831527,"MEAN_MOTION_DOT":2.752e-5,"MEAN_MOTION_DDOT":0},{"OBJECT_NAME":"STARLINK-35898","OBJECT_ID":"2025-280F","EPOCH":"2026-03-17T22:13:17.581152","MEAN_MOTION":14.98334284,"ECCENTRICITY":0.00025395,"INCLINATION":70.0021,"RA_OF_ASC_NODE":313.5236,"ARG_OF_PERICENTER":268.9777,"MEAN_ANOMALY":91.1091,"EPHEMERIS_TYPE":0,"CLASSIFICATION_TYPE":"U","NORAD_CAT_ID":66826,"ELEMENT_SET_NO":999,"REV_AT_EPOCH":1731,"BSTAR":0.00040593878,"MEAN_MOTION_DOT":4.754e-5,"MEAN_MOTION_DDOT":0},{"OBJECT_NAME":"STARLINK-35959","OBJECT_ID":"2025-280G","EPOCH":"2026-03-17T21:25:14.102976","MEAN_MOTION":14.98360836,"ECCENTRICITY":0.00026235,"INCLINATION":70.0047,"RA_OF_ASC_NODE":313.8082,"ARG_OF_PERICENTER":244.647,"MEAN_ANOMALY":115.4418,"EPHEMERIS_TYPE":0,"CLASSIFICATION_TYPE":"U","NORAD_CAT_ID":66827,"ELEMENT_SET_NO":999,"REV_AT_EPOCH":1730,"BSTAR":-0.00081208059,"MEAN_MOTION_DOT":-9.777e-5,"MEAN_MOTION_DDOT":0},{"OBJECT_NAME":"STARLINK-35982","OBJECT_ID":"2025-280H","EPOCH":"2026-03-17T21:43:16.322592","MEAN_MOTION":14.98337365,"ECCENTRICITY":0.00025442,"INCLINATION":70.002,"RA_OF_ASC_NODE":313.8531,"ARG_OF_PERICENTER":277.8867,"MEAN_ANOMALY":82.2004,"EPHEMERIS_TYPE":0,"CLASSIFICATION_TYPE":"U","NORAD_CAT_ID":66828,"ELEMENT_SET_NO":999,"REV_AT_EPOCH":1730,"BSTAR":0.00041990794,"MEAN_MOTION_DOT":4.922e-5,"MEAN_MOTION_DDOT":0},{"OBJECT_NAME":"STARLINK-36084","OBJECT_ID":"2025-280J","EPOCH":"2026-03-17T22:37:19.725024","MEAN_MOTION":14.98339782,"ECCENTRICITY":0.00028056,"INCLINATION":70.0019,"RA_OF_ASC_NODE":313.5824,"ARG_OF_PERICENTER":263.5068,"MEAN_ANOMALY":96.5772,"EPHEMERIS_TYPE":0,"CLASSIFICATION_TYPE":"U","NORAD_CAT_ID":66829,"ELEMENT_SET_NO":999,"REV_AT_EPOCH":1731,"BSTAR":0.00044481794,"MEAN_MOTION_DOT":5.22e-5,"MEAN_MOTION_DDOT":0},{"OBJECT_NAME":"STARLINK-35881","OBJECT_ID":"2025-280K","EPOCH":"2026-03-17T22:00:03.000096","MEAN_MOTION":14.98313904,"ECCENTRICITY":0.00016011,"INCLINATION":70.001,"RA_OF_ASC_NODE":313.8762,"ARG_OF_PERICENTER":274.992,"MEAN_ANOMALY":102.8499,"EPHEMERIS_TYPE":0,"CLASSIFICATION_TYPE":"U","NORAD_CAT_ID":66830,"ELEMENT_SET_NO":999,"REV_AT_EPOCH":577,"BSTAR":-0.00041856258,"MEAN_MOTION_DOT":-5.081e-5,"MEAN_MOTION_DDOT":0},{"OBJECT_NAME":"STARLINK-35788","OBJECT_ID":"2025-280L","EPOCH":"2026-03-17T22:19:17.650560","MEAN_MOTION":14.98357163,"ECCENTRICITY":0.00024975,"INCLINATION":70.0022,"RA_OF_ASC_NODE":313.5383,"ARG_OF_PERICENTER":267.3589,"MEAN_ANOMALY":92.7284,"EPHEMERIS_TYPE":0,"CLASSIFICATION_TYPE":"U","NORAD_CAT_ID":66831,"ELEMENT_SET_NO":999,"REV_AT_EPOCH":1731,"BSTAR":0.0011097024,"MEAN_MOTION_DOT":0.00013182,"MEAN_MOTION_DDOT":0},{"OBJECT_NAME":"STARLINK-35768","OBJECT_ID":"2025-280M","EPOCH":"2026-03-17T23:07:23.056320","MEAN_MOTION":14.9834305,"ECCENTRICITY":0.00017786,"INCLINATION":70.002,"RA_OF_ASC_NODE":313.6548,"ARG_OF_PERICENTER":253.5287,"MEAN_ANOMALY":106.5676,"EPHEMERIS_TYPE":0,"CLASSIFICATION_TYPE":"U","NORAD_CAT_ID":66832,"ELEMENT_SET_NO":999,"REV_AT_EPOCH":1731,"BSTAR":0.00035202323,"MEAN_MOTION_DOT":4.111e-5,"MEAN_MOTION_DDOT":0},{"OBJECT_NAME":"STARLINK-35858","OBJECT_ID":"2025-280N","EPOCH":"2026-03-17T22:43:20.103744","MEAN_MOTION":14.98347127,"ECCENTRICITY":0.00021196,"INCLINATION":70.0037,"RA_OF_ASC_NODE":313.5979,"ARG_OF_PERICENTER":271.9908,"MEAN_ANOMALY":88.1008,"EPHEMERIS_TYPE":0,"CLASSIFICATION_TYPE":"U","NORAD_CAT_ID":66833,"ELEMENT_SET_NO":999,"REV_AT_EPOCH":1731,"BSTAR":0.00029779492,"MEAN_MOTION_DOT":3.464e-5,"MEAN_MOTION_DDOT":0}]
