STARLINK-35995          
1 66817U 25278AC  26076.69042707  .00014679  00000+0  54167-3 0  9990
2 66817  43.0032  69.0968 0000996 263.1130  96.9608 15.27593067 16437
STARLINK-35994          
1 66818U 25278AD  26076.95454165  .00021151  00000+0  77563-3 0  9993
2 66818  42.9992  67.6409 0000642 259.6432 100.4347 15.27592636 16474
STARLINK-35989          
1 66819U 25278AE  26076.70199095  .00014816  00000+0  54667-3 0  9995
2 66819  43.0028  69.1790 0000932 244.1968 115.8787 15.27591487 16439
STARLINK-35966          
1 66821U 25280A   26076.91757111  .00004381  00000+0  37468-3 0  9999
2 66821  70.0014 313.8980 0002563 267.9084  92.1781 14.98337630 17304
STARLINK-35958          
1 66822U 25280B   26076.95093819  .00005643  00000+0  48024-3 0  9994
2 66822  70.0012 313.6116 0002728 279.4090  80.6761 14.98340936 17314
STARLINK-35957          
1 66823U 25280C   26076.93423973  .00004525  00000+0  38671-3 0  9996
2 66823  70.0027 313.5543 0002473 275.2808  84.8069 14.98339152 17317
STARLINK-35896          
1 66824U 25280D   26076.90088614  .00007073  00000+0  59969-3 0  9997
2 66824  70.0014 313.8397 0002531 275.3993  84.6877 14.98346650 17300
STARLINK-35476          
1 66825U 25280E   26076.90921892  .00002752  00000+0  23832-3 0  9991
2 66825  70.0010 313.8704 0002611 270.1243  89.9617 14.98335709 17302
STARLINK-35898          
1 66826U 25280F   26076.92589793  .00004754  00000+0  40594-3 0  9992
2 66826  70.0021 313.5236 0002539 268.9777  91.1091 14.98334284 17317
STARLINK-35959          
1 66827U 25280G   26076.89252434 -.00009777  00000+0 -81208-3 0  9997
2 66827  70.0047 313.8082 0002623 244.6470 115.4418 14.98360836 17307
STARLINK-35982          
1 66828U 25280H   26076.90505003  .00004922  00000+0  41991-3 0  9993
2 66828  70.0020 313.8531 0002544 277.8867  82.2004 14.98337365 17301
STARLINK-36084          
1 66829U 25280J   26076.94258941  .00005220  00000+0  44482-3 0  9994
2 66829  70.0019 313.5824 0002805 263.5068  96.5772 14.98339782 17313
STARLINK-35881          
1 66830U 25280K   26076.91670139 -.00005081  00000+0 -41856-3 0  9999
2 66830  70.0010 313.8762 0001601 274.9920 102.8499 14.98313904  5778
STARLINK-35788          
1 66831U 25280L   26076.93006540  .00013182  00000+0  11097-2 0  9993
2 66831  70.0022 313.5383 0002497 267.3589  92.7284 14.98357163 17316
STARLINK-35768          
1 66832U 25280M   26076.96346130  .00004111  00000+0  35202-3 0  9996
2 66832  70.0020 313.6548 0001778 253.5287 106.5676 14.98343050 17311
STARLINK-35858          
1 66833U 25280N   26076.94676046  .00003464  00000+0  29779-3 0  9999
2 66833  70.0037 313.5979 0002119 271.9908  88.1008 14.98347127 17314
